STARLINK-2722
1 28472C 21040AW  21325.13523986  .00005215  00000-0  34943-3 0  3254
2 28472  53.0528  37.6256 0001196  75.5313 352.0158 15.06393002    14
